[{"OBJECT_NAME":"GEOSCAN 2 (RS92S2)","OBJECT_ID":"2025-155Q","EPOCH":"2026-03-09T23:01:48.939744","MEAN_MOTION":15.28709337,"ECCENTRICITY":0.00085277,"INCLINATION":97.4463,"RA_OF_ASC_NODE":37.5259,"ARG_OF_PERICENTER":140.9505,"MEAN_ANOMALY":219.2352,"EPHEMERIS_TYPE":0,"CLASSIFICATION_TYPE":"U","NORAD_CAT_ID":64890,"ELEMENT_SET_NO":999,"REV_AT_EPOCH":6561,"BSTAR":0.00051551761,"MEAN_MOTION_DOT":0.00014341,"MEAN_MOTION_DDOT":0},{"OBJECT_NAME":"STARLINK-36040","OBJECT_ID":"2025-270AC","EPOCH":"2026-03-09T23:06:36.441792","MEAN_MOTION":15.27622482,"ECCENTRICITY":0.00012527,"INCLINATION":43.0025,"RA_OF_ASC_NODE":54.977,"ARG_OF_PERICENTER":213.581,"MEAN_ANOMALY":146.4963,"EPHEMERIS_TYPE":0,"CLASSIFICATION_TYPE":"U","NORAD_CAT_ID":66614,"ELEMENT_SET_NO":999,"REV_AT_EPOCH":1758,"BSTAR":0.0012926562,"MEAN_MOTION_DOT":0.00035527,"MEAN_MOTION_DDOT":0}]
